*******************************************************************************
 Revised: Aug 13, 2009   Ulysses Spacecraft (interplanetary) / (Sun)        -55
                             http://ulysses.jpl.nasa.gov/ 
            http://ulysses-ops.jpl.esa.int/ulsfct/rgpCafe/solsys/solsys.html

 MISSION ENDED: June 30, 2009. Last tracking data: 2009-Jun-29.
  The Ulysses Radioisotope Thermoelectric Generators (RTGs) have been steadily 
  losing power over the years and can no longer run all the communications, 
  scientific equipment, and heating simultaneously. Soon the spacecraft will 
  become so cold that its hydrazine fuel lines will freeze and it will become 
  impossible to maneuver. 

  A five year mission was planned, but for more than 17 years, the spacecraft 
  has studied the Sun, magnetic fields, the solar wind, x-rays and particles 
  from solar flares, and more. 
 
 BACKGROUND
   Launched : Oct 6, 1990                   Jupiter gravity assist: Feb 8, 1992
   Deployed from shuttle Discovery (STS-41) 160 nm above Earth

   Objective: Study the Sun from high solar latitudes.
   Ulysses is a joint mission between NASA and the European Space Agency (ESA).

   To reach high solar latitudes, the spacecraft was directed past Jupiter to 
   obtain a gravity-assist, accelerating Ulysses out of the ecliptic plane.

   With an orbital period of 6 years, observations have/will be obtained at 
   both the minimum and maximum of the 11 year solar cycle.

   See the web-page above for extensive information on the Ulysses Mission.

 SPACECRAFT TRAJECTORY:
  ... concatenated of trajectories provided Navigation Team (Mark Ryne/JPL). 

  File name              Span
  ---------------------  --------------------------------------------------
  pfile_ulysses_history  1990-Oct-6 (injection) to 2050-Jan-1. 
                         Trajectory after 2009-Jun-29 is predicted.
*******************************************************************************


*******************************************************************************
Ephemeris / WWW_USER Tue May  2 21:00:58 2023 Pasadena, USA      / Horizons
*******************************************************************************
Target body name: Ulysses (spacecraft) (-55)      {source: ulysses}
Center body name: Earth (399)                     {source: ulysses}
Center-site name: BODY CENTER
*******************************************************************************
Start time      : A.D. 1994-Jan-01 00:00:00.0000 TDB
Stop  time      : A.D. 1995-Dec-31 00:00:00.0000 TDB
Step-size       : 1440 minutes
*******************************************************************************
Center geodetic : 0.0, 0.0, 0.0                   {E-lon(deg),Lat(deg),Alt(km)}
Center cylindric: 0.0, 0.0, 0.0                   {E-lon(deg),Dxy(km),Dz(km)}
Center radii    : 6378.137, 6378.137, 6356.752 km {Equator_a, b, pole_c}
Output units    : KM-S
Calendar mode   : Gregorian
Output type     : GEOMETRIC cartesian states
Output format   : 1 (position only)
EOP file        : eop.230501.p230725
EOP coverage    : DATA-BASED 1962-JAN-20 TO 2023-MAY-01. PREDICTS-> 2023-JUL-24
Reference frame : Ecliptic of J2000.0
*******************************************************************************
            JDTDB,            Calendar Date (TDB),                      X,                      Y,                      Z,
**************************************************************************************************************************
$$SOE
2449769.500000000, A.D. 1995-Feb-21 00:00:00.0000,  3.070821914723182E+08, -1.520641607839209E+08, -5.723206432853777E+07,
2449770.500000000, A.D. 1995-Feb-22 00:00:00.0000,  3.089838885776419E+08, -1.494835410221284E+08, -5.453583917554966E+07,
2449771.500000000, A.D. 1995-Feb-23 00:00:00.0000,  3.108243878327927E+08, -1.468723662860264E+08, -5.183314432363268E+07,
2449772.500000000, A.D. 1995-Feb-24 00:00:00.0000,  3.126031361185977E+08, -1.442313253220131E+08, -4.912428211781181E+07,
2449773.500000000, A.D. 1995-Feb-25 00:00:00.0000,  3.143195931567986E+08, -1.415611308808779E+08, -4.640955835544512E+07,
2449774.500000000, A.D. 1995-Feb-26 00:00:00.0000,  3.159732367574506E+08, -1.388625207774259E+08, -4.368928189856216E+07,
2449775.500000000, A.D. 1995-Feb-27 00:00:00.0000,  3.175635672701576E+08, -1.361362570971085E+08, -4.096376416074939E+07,
2449776.500000000, A.D. 1995-Feb-28 00:00:00.0000,  3.190901136134830E+08, -1.333831248722263E+08, -3.823331901545862E+07,
2449777.500000000, A.D. 1995-Mar-01 00:00:00.0000,  3.205524352226947E+08, -1.306039279738260E+08, -3.549826232596240E+07,
2449778.500000000, A.D. 1995-Mar-02 00:00:00.0000,  3.219501260536109E+08, -1.277994856116014E+08, -3.275891209619247E+07,
2449779.500000000, A.D. 1995-Mar-03 00:00:00.0000,  3.232828142082222E+08, -1.249706272592183E+08, -3.001558831405909E+07,
2449780.500000000, A.D. 1995-Mar-04 00:00:00.0000,  3.245501625834682E+08, -1.221181889643292E+08, -2.726861317067952E+07,
2449781.500000000, A.D. 1995-Mar-05 00:00:00.0000,  3.257518666203738E+08, -1.192430096458612E+08, -2.451831102668773E+07,
2449782.500000000, A.D. 1995-Mar-06 00:00:00.0000,  3.268876530771252E+08, -1.163459290452071E+08, -2.176500852928059E+07,
2449783.500000000, A.D. 1995-Mar-07 00:00:00.0000,  3.279572775656996E+08, -1.134277860816568E+08, -1.900903450012354E+07,
2449784.500000000, A.D. 1995-Mar-08 00:00:00.0000,  3.289605229574398E+08, -1.104894181779236E+08, -1.625071986478058E+07,
2449785.500000000, A.D. 1995-Mar-09 00:00:00.0000,  3.298971976032557E+08, -1.075316606725906E+08, -1.349039743288530E+07,
2449786.500000000, A.D. 1995-Mar-10 00:00:00.0000,  3.307671357016367E+08, -1.045553469685528E+08, -1.072840179590292E+07,
2449787.500000000, A.D. 1995-Mar-11 00:00:00.0000,  3.315701944438073E+08, -1.015613073100791E+08, -7.965069000657499E+06,
2449788.500000000, A.D. 1995-Mar-12 00:00:00.0000,  3.323062557076452E+08, -9.855036880377273E+07, -5.200736473287240E+06,
2449789.500000000, A.D. 1995-Mar-13 00:00:00.0000,  3.329752231633472E+08, -9.552335367591122E+07, -2.435742773469970E+06,
2449790.500000000, A.D. 1995-Mar-14 00:00:00.0000,  3.335770225861479E+08, -9.248107852231057E+07,  3.295724633743949E+05,
2449791.500000000, A.D. 1995-Mar-15 00:00:00.0000,  3.341115985912026E+08, -8.942435269219594E+07,  3.094868656998035E+06,
2449792.500000000, A.D. 1995-Mar-16 00:00:00.0000,  3.345788897775534E+08, -8.635406166973786E+07,  5.859853204566922E+06,
2449793.500000000, A.D. 1995-Mar-17 00:00:00.0000,  3.349789170644348E+08, -8.327082841736694E+07,  8.624085721488707E+06,
2449794.500000000, A.D. 1995-Mar-18 00:00:00.0000,  3.353116398777577E+08, -8.017552833309075E+07,  1.138727267945820E+07,
2449795.500000000, A.D. 1995-Mar-19 00:00:00.0000,  3.355770439182426E+08, -7.706894642118408E+07,  1.414907098633600E+07,
2449796.500000000, A.D. 1995-Mar-20 00:00:00.0000,  3.357751239289123E+08, -7.395187132365663E+07,  1.690913806909946E+07,
2449797.500000000, A.D. 1995-Mar-21 00:00:00.0000,  3.359058766760336E+08, -7.082509894074269E+07,  1.966713232946527E+07,
2449798.500000000, A.D. 1995-Mar-22 00:00:00.0000,  3.359693059895208E+08, -6.768943792451373E+07,  2.242271402347151E+07,
2449799.500000000, A.D. 1995-Mar-23 00:00:00.0000,  3.359654255935375E+08, -6.454571292468792E+07,  2.517554595729688E+07,
2449800.500000000, A.D. 1995-Mar-24 00:00:00.0000,  3.358942649379938E+08, -6.139476650610005E+07,  2.792529420924516E+07,
2449801.500000000, A.D. 1995-Mar-25 00:00:00.0000,  3.357558736586602E+08, -5.823745901050384E+07,  3.067162864818788E+07,
2449802.500000000, A.D. 1995-Mar-26 00:00:00.0000,  3.355503257552264E+08, -5.507466707355376E+07,  3.341422331781987E+07,
2449803.500000000, A.D. 1995-Mar-27 00:00:00.0000,  3.352777232277011E+08, -5.190728118513101E+07,  3.615275672415390E+07,
2449804.500000000, A.D. 1995-Mar-28 00:00:00.0000,  3.349382435180591E+08, -4.873624023634021E+07,  3.888680957165626E+07,
2449805.500000000, A.D. 1995-Mar-29 00:00:00.0000,  3.345319622150430E+08, -4.556237675784070E+07,  4.161627683912607E+07,
2449806.500000000, A.D. 1995-Mar-30 00:00:00.0000,  3.340591210503036E+08, -4.238664089686973E+07,  4.434074640733890E+07,
2449807.500000000, A.D. 1995-Mar-31 00:00:00.0000,  3.335199502328939E+08, -3.920994452903754E+07,  4.705991553382012E+07,
2449808.500000000, A.D. 1995-Apr-01 00:00:00.0000,  3.329147116412529E+08, -3.603319618162127E+07,  4.977348609987138E+07,
2449809.500000000, A.D. 1995-Apr-02 00:00:00.0000,  3.322436971209641E+08, -3.285729828331873E+07,  5.248116453434245E+07,
2449810.500000000, A.D. 1995-Apr-03 00:00:00.0000,  3.315072264335341E+08, -2.968314507858962E+07,  5.518266176242340E+07,
2449811.500000000, A.D. 1995-Apr-04 00:00:00.0000,  3.307056451826828E+08, -2.651162121659864E+07,  5.787769320232780E+07,
2449812.500000000, A.D. 1995-Apr-05 00:00:00.0000,  3.298393226484442E+08, -2.334360087264969E+07,  6.056597876710956E+07,
2449813.500000000, A.D. 1995-Apr-06 00:00:00.0000,  3.289086500894818E+08, -2.017994725393955E+07,  6.324724293094982E+07,
2449814.500000000, A.D. 1995-Apr-07 00:00:00.0000,  3.279140392641808E+08, -1.702151224569639E+07,  6.592121479888804E+07,
2449815.500000000, A.D. 1995-Apr-08 00:00:00.0000,  3.268559212536122E+08, -1.386913601104252E+07,  6.858762818728927E+07,
2449816.500000000, A.D. 1995-Apr-09 00:00:00.0000,  3.257347452791398E+08, -1.072364638742425E+07,  7.124622166664691E+07,
2449817.500000000, A.D. 1995-Apr-10 00:00:00.0000,  3.245509775249597E+08, -7.585858029044807E+06,  7.389673859397885E+07,
2449818.500000000, A.D. 1995-Apr-11 00:00:00.0000,  3.233050994605799E+08, -4.456571331991047E+06,  7.653892707755178E+07,
2449819.500000000, A.D. 1995-Apr-12 00:00:00.0000,  3.219976055575887E+08, -1.336571359128602E+06,  7.917253990777671E+07,
2449820.500000000, A.D. 1995-Apr-13 00:00:00.0000,  3.206290001291192E+08,  1.773372836487401E+06,  8.179733445793879E+07,
